{"n":33498,"c":9,"l1":"1 33498U 2009-002 26137.77843788  0.00002339  00000-0  216760-4 0  9995","l2":"2 33498  98.1536  83.8550 0006936 271.1145  88.9280 14.95518087933935","nm":"STARS (KUKAI)"},{"n":33499,"c":9,"l1":"1 33499U 2009-002 26137.82847016  0.00000830  00000-0  108920-4 0  9992","l2":"2 33499  98.1194  59.7913 0008782  37.3249 322.8573 14.83037131931698","nm":"KKS-1 (KISEKI)"},{"n":35683,"c":9,"l1":"1 35683U 2009-041 26137.85513542  0.00000225  00000-0  398660-5 0  9990","l2":"2 35683  97.8790 273.5716 0001649  79.7465 280.3931 14.75974532902099","nm":"UK-DMC 2"},{"n":35931,"c":9,"l1":"1 35931U 2009-051 26137.88949684  0.00000197  00000-0  160710-4 0  9990","l2":"2 35931  98.2300 127.7676 0014917 327.3126  32.7116 13.99650005875094","nm":"OCEANSAT-2"},{"n":35932,"c":9,"l1":"1 35932U 2009-051 26137.72224980  0.00000602  00000-0  128740-4 0  9997","l2":"2 35932  98.4055  45.0785 0005870 317.8012  42.2736 14.62416723884703","nm":"SWISSCUBE"},{"n":35933,"c":9,"l1":"1 35933U 2009-051 26137.23674970  0.00000509  00000-0  112091-4 0  9990","l2":"2 35933  98.3985  44.2844 0004729 338.5961  21.5041 14.61665049884667","nm":"BEESAT-1"},{"n":35935,"c":9,"l1":"1 35935U 2009-051 26137.47465492  0.00000468  00000-0  106678-4 0  9993","l2":"2 35935  98.4070  43.7503 0007125 344.8531  15.2454 14.60389786884250","nm":"ITUPSAT1"},{"n":35951,"c":3,"l1":"1 35951U 2009-057 26137.87446389  0.00000172  00000-0  112330-4 0  9999","l2":"2 35951  98.9028 118.7124 0010744 343.5588  16.5235 14.14878518855307","nm":"DMSP 5D-3 F18 (USA 210)"},{"n":36037,"c":6,"l1":"1 36037U 2009-059 26137.77277772  0.00000087  00000-0  308650-5 0  9992","l2":"2 36037  98.2448 321.5480 0013658  20.3154 339.8584 14.54848291877106","nm":"PROBA-2"},{"n":36110,"c":9,"l1":"1 36110U 2009-069 26137.62362411  0.00000288  00000-0  470170-5 0  9994","l2":"2 36110  98.0108  23.6742 0025546 135.4564 224.8706 14.77976091885116","nm":"YAOGAN-7"},{"n":36122,"c":9,"l1":"1 36122U 2009-072 26137.84423537  0.00000329  00000-0  977360-4 0  9990","l2":"2 36122 100.4010  92.1640 0006983 307.1178  52.9297 13.16439460789013","nm":"XIWANG-1 (HOPE-1)"},{"n":36519,"c":2,"l1":"1 36519U 2010-017 26137.86614514  0.00000036  00000-0  227530-5 0  9993","l2":"2 36519  82.9592 271.9844 0035477 212.3049 313.5152 13.71663553803778","nm":"COSMOS 2463"},{"n":36795,"c":9,"l1":"1 36795U 2010-035 26137.82016127  0.00000127  00000-0  244660-5 0  9995","l2":"2 36795  97.9976 188.5598 0010089 292.4032  67.6110 14.78618063855365","nm":"CARTOSAT-2B"},{"n":36799,"c":9,"l1":"1 36799U 2010-035 26137.79234375  0.00012735  00000-0  434910-4 0  9998","l2":"2 36799  98.0707  81.6791 0003085  44.0640 316.0844 15.30463360863052","nm":"TISAT 1"},{"n":36834,"c":9,"l1":"1 36834U 2010-038 26137.91215485  0.00001501  00000-0  181250-4 0  9991","l2":"2 36834  97.8994 161.5571 0001565  93.9612  27.1024 14.85248537852711","nm":"YAOGAN-10"},{"n":37180,"c":9,"l1":"1 37180U 2010-051 26137.85651535 -0.00000155  00000-0 -765160-6 0  9990","l2":"2 37180  97.8709 142.9591 0012049  50.0691 310.1588 14.99258280851131","nm":"SHIJIAN-6 04B (SJ-6 04B)"},{"n":37214,"c":3,"l1":"1 37214U 2010-059 26137.83368411  0.00000191  00000-0  122420-4 0  9994","l2":"2 37214  98.9643 183.7155 0020959 273.1643 197.4431 14.14834743803132","nm":"FENGYUN 3B"},{"n":37216,"c":9,"l1":"1 37216U 2010-060 26137.79397972  0.00000109  00000-0  202690-5 0  9995","l2":"2 37216  97.8879 321.8345 0001361  85.1331 275.0038 14.82155668840066","nm":"COSMO-SKYMED 4"},{"n":37224,"c":9,"l1":"1 37224U 2010-062 26137.45556889  0.00001174  00000-0  117051-4 0  9991","l2":"2 37224  71.9681 149.9435 0012813 130.3535 229.8756 14.93603117112055","nm":"O/OREOS (USA 219)"},{"n":37387,"c":9,"l1":"1 37387U 2011-015 26137.82448280  0.00000064  00000-0  493410-5 0  9990","l2":"2 37387  98.7653 205.4736 0010912 351.1291   8.9692 14.21605176781867","nm":"RESOURCESAT-2"},{"n":37388,"c":9,"l1":"1 37388U 2011-015 26137.49581056  0.00000099  00000-0  590292-5 0  9997","l2":"2 37388  98.3670 112.9376 0015729  73.4062  40.3405 14.25616223783263","nm":"YOUTHSAT"},{"n":37793,"c":6,"l1":"1 37793U 2011-044 26137.33264787  0.00000362  00000-0  586710-5 0  9994","l2":"2 37793  98.2382  47.2006 0042977 182.8978 303.9348 14.76869335792598","nm":"APRIZESAT 6"},{"n":37839,"c":9,"l1":"1 37839U 2011-058 26137.68524691  0.00000367  00000-0  523600-5 0  9995","l2":"2 37839  19.9593 133.7326 0018781  99.5844  65.9277 14.13767083754706","nm":"JUGNU"},{"n":37841,"c":9,"l1":"1 37841U 2011-058 26137.60528073  0.00000365  00000-0  539990-5 0  9995","l2":"2 37841  19.9716 244.5799 0011605 227.5830 160.2107 14.11568523753499","nm":"SRMSAT"},{"n":37849,"c":3,"l1":"1 37849U 2011-061 26137.82000411  0.00000035  00000-0  376610-5 0  9994","l2":"2 37849  98.7944  78.9059 0002770  65.9624 294.1842 14.19510432754130","nm":"SUOMI NPP"},{"n":37875,"c":9,"l1":"1 37875U 2011-066 26137.84756212  0.00004624  00000-0  181330-4 0  9997","l2":"2 37875  97.1166 177.8472 0009012 344.2610  15.8348 15.26181874807412","nm":"YAOGAN-12"}