OBJECT_NAME,OBJECT_ID,EPOCH,MEAN_MOTION,ECCENTRICITY,INCLINATION,RA_OF_ASC_NODE,ARG_OF_PERICENTER,MEAN_ANOMALY,EPHEMERIS_TYPE,CLASSIFICATION_TYPE,NORAD_CAT_ID,ELEMENT_SET_NO,REV_AT_EPOCH,BSTAR,MEAN_MOTION_DOT,MEAN_MOTION_DDOT
STARS (KUKAI),2009-002G,2026-05-17T18:40:57.033696,14.95518087,.0006936,98.1536,83.8550,271.1145,88.9280,0,U,33498,999,93393,.21676E-3,.2339E-4,0
KKS-1 (KISEKI),2009-002H,2026-05-17T19:52:59.822688,14.83037131,.0008782,98.1194,59.7913,37.3249,322.8573,0,U,33499,999,93169,.10892E-3,.83E-5,0
UK-DMC 2,2009-041C,2026-05-17T20:31:23.700288,14.75974532,.0001649,97.8790,273.5716,79.7465,280.3931,0,U,35683,999,90209,.39866E-4,.225E-5,0
OCEANSAT-2,2009-051A,2026-05-17T21:20:52.527840,13.99650005,.0014917,98.2300,127.7676,327.3126,32.7116,0,U,35931,999,87509,.16071E-3,.197E-5,0
SWISSCUBE,2009-051B,2026-05-17T17:20:02.383584,14.62416723,.000587,98.4055,45.0785,317.8012,42.2736,0,U,35932,999,88470,.12874E-3,.602E-5,0
BEESAT-1,2009-051C,2026-05-17T05:40:55.174080,14.61665049,.0004729,98.3985,44.2844,338.5961,21.5041,0,U,35933,999,88466,.11209088E-3,.509E-5,0
ITUPSAT1,2009-051E,2026-05-17T11:23:30.185952,14.60389786,.00071254,98.4070,43.7503,344.8531,15.2454,0,U,35935,999,88425,.10667842E-3,.468E-5,0
DMSP 5D-3 F18 (USA 210),2009-057A,2026-05-17T20:59:13.680960,14.14878518,.0010744,98.9028,118.7124,343.5588,16.5235,0,U,35951,999,85530,.11233E-3,.172E-5,0
PROBA-2,2009-059B,2026-05-17T18:32:47.995008,14.54848291,.0013658,98.2448,321.5480,20.3154,339.8584,0,U,36037,999,87710,.30865E-4,.87E-6,0
YAOGAN-7,2009-069A,2026-05-17T14:58:01.123104,14.77976091,.0025546,98.0108,23.6742,135.4564,224.8706,0,U,36110,999,88511,.47017E-4,.288E-5,0
XIWANG-1 (HOPE-1),2009-072B,2026-05-17T20:15:41.936832,13.16439460,.0006983,100.4010,92.1640,307.1178,52.9297,0,U,36122,999,78901,.97736E-3,.329E-5,0
COSMOS 2463,2010-017A,2026-05-17T20:47:14.940096,13.71663553,.0035477,82.9592,271.9844,212.3049,313.5152,0,U,36519,999,80377,.22753E-4,.36E-6,0
CARTOSAT-2B,2010-035A,2026-05-17T19:41:01.934592,14.78618063,.0010089,97.9976,188.5598,292.4032,67.6110,0,U,36795,999,85536,.24466E-4,.127E-5,0
TISAT 1,2010-035E,2026-05-17T19:00:58.500000,15.30463360,.0003085,98.0707,81.6791,44.0640,316.0844,0,U,36799,999,86305,.43491E-3,.12735E-3,0
YAOGAN-10,2010-038A,2026-05-17T21:53:30.179904,14.85248537,.0001565,97.8994,161.5571,93.9612,27.1024,0,U,36834,999,85271,.18125E-3,.1501E-4,0
SHIJIAN-6 04B (SJ-6 04B),2010-051B,2026-05-17T20:33:22.926240,14.99258280,.0012049,97.8709,142.9591,50.0691,310.1588,0,U,37180,999,85113,-.76516E-5,-.155E-5,0
FENGYUN 3B,2010-059A,2026-05-17T20:00:30.307968,14.14834743,.0020959,98.9643,183.7155,273.1643,197.4431,0,U,37214,999,80313,.12242E-3,.191E-5,0
COSMO-SKYMED 4,2010-060A,2026-05-17T19:03:19.848672,14.82155668,.0001361,97.8879,321.8345,85.1331,275.0038,0,U,37216,999,84006,.20269E-4,.109E-5,0
O/OREOS (USA 219),2010-062C,2026-05-17T10:56:01.152096,14.93603117,.00128132,71.9681,149.9435,130.3535,229.8756,0,U,37224,999,11205,.11705117E-3,.1174E-4,0
RESOURCESAT-2,2011-015A,2026-05-17T19:47:15.314784,14.21605176,.0010912,98.7653,205.4736,351.1291,8.9692,0,U,37387,999,78186,.49341E-4,.64E-6,0
YOUTHSAT,2011-015B,2026-05-17T11:53:58.032384,14.25616223,.00157294,98.3670,112.9376,73.4062,40.3405,0,U,37388,999,78326,.59029199E-4,.99E-6,0
APRIZESAT 6,2011-044F,2026-05-17T07:59:00.776832,14.76869335,.00429774,98.2382,47.2006,182.8978,303.9348,0,U,37793,999,79259,.58670975E-4,.362E-5,0
JUGNU,2011-058B,2026-05-17T16:26:45.333024,14.13767083,.0018781,19.9593,133.7326,99.5844,65.9277,0,U,37839,999,75470,.5236E-4,.367E-5,0
SRMSAT,2011-058D,2026-05-17T14:31:36.255072,14.11568523,.0011605,19.9716,244.5799,227.5830,160.2107,0,U,37841,999,75349,.53999E-4,.365E-5,0
SUOMI NPP,2011-061A,2026-05-17T19:40:48.355104,14.19510432,.000277,98.7944,78.9059,65.9624,294.1842,0,U,37849,999,75413,.37661E-4,.35E-6,0
YAOGAN-12,2011-066B,2026-05-17T20:20:29.367168,15.26181874,.0009012,97.1166,177.8472,344.2610,15.8348,0,U,37875,999,80741,.18133E-3,.4624E-4,0
